ONEWEB-0235             
1 48771U 21045E   24335.84773782  .00000030  00000+0  46923-4 0  9992
2 48771  87.9076  11.3435 0001745  74.2706 285.8617 13.15548011171438
ONEWEB-0242             
1 48772U 21045F   24335.84140395 -.00000070  00000+0 -21906-3 0  9990
2 48772  87.9075  11.3317 0001915  88.1474 271.9876 13.15546809170358
ONEWEB-0241             
1 48773U 21045G   24335.82870105 -.00000120  00000+0 -35159-3 0  9999
2 48773  87.9091  11.3969 0001471  89.9288 270.2011 13.15549201170261
ONEWEB-0243             
1 48774U 21045H   24335.86040810  .00000178  00000+0  43986-3 0  9994
2 48774  87.9087  11.3512 0001801  78.1153 282.0179 13.15551336170290
ONEWEB-0222             
1 48775U 21045J   24335.91982476  .00000155  00000+0  37898-3 0  9994
2 48775  87.9077  11.3250 0001638  90.9760 269.1558 13.15547484170345
ONEWEB-0244             
1 48776U 21045K   24335.79386262  .00000128  00000+0  30476-3 0  9997
2 48776  87.9083  11.3304 0001974  91.4933 268.6423 13.15547550170893
ONEWEB-0247             
1 48777U 21045L   24335.86673077  .00000187  00000+0  46374-3 0  9998
2 48777  87.9085  11.3696 0001899  63.2780 296.8544 13.15547032170345
ONEWEB-0245             
1 48778U 21045M   24335.86198735  .00000216  00000+0  53929-3 0  9999
2 48778  87.9077  11.3496 0001543  94.0047 266.1259 13.15546925170319
